{"type": "FeatureCollection", "features": [ {"type": "Feature", "properties": {"norad_id": 66573, "name": "STARLINK-35650", "group": "last-30-days", "lat": -4.896829243740839, "lon": -98.87188021158046, "alt_km": 412.1800627045486, "timestamp": "2025-12-20T11:30:27.103495+00:00", "meta": {"OBJECT_NAME": "STARLINK-35650", "OBJECT_ID": "2025-268S", "EPOCH": "2025-12-19T14:36:55.904832", "MEAN_MOTION": 15.50859773, "ECCENTRICITY": 0.0003722, "INCLINATION": 43.0011, "RA_OF_ASC_NODE": 80.9506, "ARG_OF_PERICENTER": 102.75, "MEAN_ANOMALY": 257.3776, "EPHEMERIS_TYPE": 0, "CLASSIFICATION_TYPE": "U", "NORAD_CAT_ID": 66573, "ELEMENT_SET_NO": 999, "REV_AT_EPOCH": 569, "BSTAR": 0.0063018, "MEAN_MOTION_DOT": 0.00392409, "MEAN_MOTION_DDOT": 0}, "tle": {"line1": "1 66573U 25268S   25353.60898038  .00392409  00000+0  63018-2 0  9996", "line2": "2 66573  43.0011  80.9506 0003722 102.7500 257.3776 15.50859773  5692"}}, "geometry": {"type": "Point", "coordinates": [-98.87188021158046, -4.896829243740839]}}, {"type": "Feature", "properties": {"norad_id": 66574, "name": "STARLINK-35812", "group": "last-30-days", "lat": -10.792774995683729, "lon": -92.36622590252345, "alt_km": 401.5934554401356, "timestamp": "2025-12-20T11:30:27.103508+00:00", "meta": {"OBJECT_NAME": "STARLINK-35812", "OBJECT_ID": "2025-268T", "EPOCH": "2025-12-20T04:00:00.999072", "MEAN_MOTION": 15.53816988, "ECCENTRICITY": 0.0001566, "INCLINATION": 43.0012, "RA_OF_ASC_NODE": 77.6709, "ARG_OF_PERICENTER": 252.4659, "MEAN_ANOMALY": 350.7007, "EPHEMERIS_TYPE": 0, "CLASSIFICATION_TYPE": "U", "NORAD_CAT_ID": 66574, "ELEMENT_SET_NO": 999, "REV_AT_EPOCH": 586, "BSTAR": 0.036605, "MEAN_MOTION_DOT": 0.02757459, "MEAN_MOTION_DDOT": 0}, "tle": {"line1": "1 66574U 25268T   25354.16667823  .02757459  00000+0  36605-1 0  9998", "line2": "2 66574  43.0012  77.6709 0001566 252.4659 350.7007 15.53816988  5862"}}, "geometry": {"type": "Point", "coordinates": [-92.36622590252345, -10.792774995683729]}}, {"type": "Feature", "properties": {"norad_id": 66575, "name": "STARLINK-35810", "group": "last-30-days", "lat": -12.069086373220362, "lon": -90.91026268358833, "alt_km": 401.6513699067773, "timestamp": "2025-12-20T11:30:27.103518+00:00", "meta": {"OBJECT_NAME": "STARLINK-35810", "OBJECT_ID": "2025-268U", "EPOCH": "2025-12-20T04:00:00.999072", "MEAN_MOTION": 15.53819983, "ECCENTRICITY": 0.0001654, "INCLINATION": 43.0013, "RA_OF_ASC_NODE": 77.6664, "ARG_OF_PERICENTER": 250.7792, "MEAN_ANOMALY": 354.305, "EPHEMERIS_TYPE": 0, "CLASSIFICATION_TYPE": "U", "NORAD_CAT_ID": 66575, "ELEMENT_SET_NO": 999, "REV_AT_EPOCH": 586, "BSTAR": 0.036513, "MEAN_MOTION_DOT": 0.02749699, "MEAN_MOTION_DDOT": 0}, "tle": {"line1": "1 66575U 25268U   25354.16667823  .02749699  00000+0  36513-1 0  9994", "line2": "2 66575  43.0013  77.6664 0001654 250.7792 354.3050 15.53819983  5867"}}, "geometry": {"type": "Point", "coordinates": [-90.91026268358833, -12.069086373220362]}}, {"type": "Feature", "properties": {"norad_id": 66576, "name": "STARLINK-35814", "group": "last-30-days", "lat": -13.337440053692998, "lon": -89.44144006868737, "alt_km": 401.7913858169022, "timestamp": "2025-12-20T11:30:27.103530+00:00", "meta": {"OBJECT_NAME": "STARLINK-35814", "OBJECT_ID": "2025-268V", "EPOCH": "2025-12-20T04:00:00.999072", "MEAN_MOTION": 15.53819573, "ECCENTRICITY": 0.0001514, "INCLINATION": 43.0013, "RA_OF_ASC_NODE": 77.6611, "ARG_OF_PERICENTER": 249.2271, "MEAN_ANOMALY": 357.7734, "EPHEMERIS_TYPE": 0, "CLASSIFICATION_TYPE": "U", "NORAD_CAT_ID": 66576, "ELEMENT_SET_NO": 999, "REV_AT_EPOCH": 586, "BSTAR": 0.03654, "MEAN_MOTION_DOT": 0.02752169, "MEAN_MOTION_DDOT": 0}, "tle": {"line1": "1 66576U 25268V   25354.16667823  .02752169  00000+0  36540-1 0  9991", "line2": "2 66576  43.0013  77.6611 0001514 249.2271 357.7734 15.53819573  5861"}}, "geometry": {"type": "Point", "coordinates": [-89.44144006868737, -13.337440053692998]}}, {"type": "Feature", "properties": {"norad_id": 66577, "name": "STARLINK-35815", "group": "last-30-days", "lat": -9.46521112022923, "lon": -93.85464814777829, "alt_km": 414.2545223223524, "timestamp": "2025-12-20T11:30:27.103540+00:00", "meta": {"OBJECT_NAME": "STARLINK-35815", "OBJECT_ID": "2025-268W", "EPOCH": "2025-12-19T16:07:37.596288", "MEAN_MOTION": 15.50777469, "ECCENTRICITY": 0.00018642, "INCLINATION": 43.0013, "RA_OF_ASC_NODE": 80.5656, "ARG_OF_PERICENTER": 139.1198, "MEAN_ANOMALY": 220.9802, "EPHEMERIS_TYPE": 0, "CLASSIFICATION_TYPE": "U", "NORAD_CAT_ID": 66577, "ELEMENT_SET_NO": 999, "REV_AT_EPOCH": 570, "BSTAR": 0.0010498154, "MEAN_MOTION_DOT": 0.00062177, "MEAN_MOTION_DDOT": 0}, "tle": {"line1": "1 66577U 25268W   25353.67196292  .00062177  00000+0  10498-2 0  9990", "line2": "2 66577  43.0013  80.5656 0001864 139.1198 220.9802 15.50777469  5701"}}, "geometry": {"type": "Point", "coordinates": [-93.85464814777829, -9.46521112022923]}}, {"type": "Feature", "properties": {"norad_id": 66578, "name": "STARLINK-35743", "group": "last-30-days", "lat": -10.683430606157717, "lon": -92.48548335056148, "alt_km": 414.79710212602913, "timestamp": "2025-12-20T11:30:27.103551+00:00", "meta": {"OBJECT_NAME": "STARLINK-35743", "OBJECT_ID": "2025-268X", "EPOCH": "2025-12-19T13:01:43.293216", "MEAN_MOTION": 15.50763067, "ECCENTRICITY": 6.51e-05, "INCLINATION": 42.9979, "RA_OF_ASC_NODE": 81.316, "ARG_OF_PERICENTER": 284.5171, "MEAN_ANOMALY": 75.5617, "EPHEMERIS_TYPE": 0, "CLASSIFICATION_TYPE": "U", "NORAD_CAT_ID": 66578, "ELEMENT_SET_NO": 999, "REV_AT_EPOCH": 568, "BSTAR": 0.0024134, "MEAN_MOTION_DOT": 0.0014484, "MEAN_MOTION_DDOT": 0}, "tle": {"line1": "1 66578U 25268X   25353.54286219  .00144840  00000+0  24134-2 0  9996", "line2": "2 66578  42.9979  81.3160 0000651 284.5171  75.5617 15.50763067  5683"}}, "geometry": {"type": "Point", "coordinates": [-92.48548335056148, -10.683430606157717]}}, {"type": "Feature", "properties": {"norad_id": 66579, "name": "STARLINK-35868", "group": "last-30-days", "lat": -17.08184906405181, "lon": -84.94053187010317, "alt_km": 402.11638393578596, "timestamp": "2025-12-20T11:30:27.103562+00:00", "meta": {"OBJECT_NAME": "STARLINK-35868", "OBJECT_ID": "2025-268Y", "EPOCH": "2025-12-20T04:00:00.999072", "MEAN_MOTION": 15.53812494, "ECCENTRICITY": 0.0001663, "INCLINATION": 43.0013, "RA_OF_ASC_NODE": 77.6467, "ARG_OF_PERICENTER": 256.7113, "MEAN_ANOMALY": 356.0434, "EPHEMERIS_TYPE": 0, "CLASSIFICATION_TYPE": "U", "NORAD_CAT_ID": 66579, "ELEMENT_SET_NO": 999, "REV_AT_EPOCH": 586, "BSTAR": 0.036645, "MEAN_MOTION_DOT": 0.02760346, "MEAN_MOTION_DDOT": 0}, "tle": {"line1": "1 66579U 25268Y   25354.16667823  .02760346  00000+0  36645-1 0  9996", "line2": "2 66579  43.0013  77.6467 0001663 256.7113 356.0434 15.53812494  5860"}}, "geometry": {"type": "Point", "coordinates": [-84.94053187010317, -17.08184906405181]}}, {"type": "Feature", "properties": {"norad_id": 66580, "name": "STARLINK-35872", "group": "last-30-days", "lat": -13.557768533844433, "lon": -89.18065716967094, "alt_km": 413.25910784491316, "timestamp": "2025-12-20T11:30:27.103572+00:00", "meta": {"OBJECT_NAME": "STARLINK-35872", "OBJECT_ID": "2025-268Z", "EPOCH": "2025-12-19T14:33:26.953344", "MEAN_MOTION": 15.50873267, "ECCENTRICITY": 0.0002511, "INCLINATION": 42.9993, "RA_OF_ASC_NODE": 80.9317, "ARG_OF_PERICENTER": 162.1716, "MEAN_ANOMALY": 197.9233, "EPHEMERIS_TYPE": 0, "CLASSIFICATION_TYPE": "U", "NORAD_CAT_ID": 66580, "ELEMENT_SET_NO": 999, "REV_AT_EPOCH": 569, "BSTAR": 0.0027444, "MEAN_MOTION_DOT": 0.00165853, "MEAN_MOTION_DDOT": 0}, "tle": {"line1": "1 66580U 25268Z   25353.60656196  .00165853  00000+0  27444-2 0  9995", "line2": "2 66580  42.9993  80.9317 0002511 162.1716 197.9233 15.50873267  5692"}}, "geometry": {"type": "Point", "coordinates": [-89.18065716967094, -13.557768533844433]}}, {"type": "Feature", "properties": {"norad_id": 66581, "name": "STARLINK-35744", "group": "last-30-days", "lat": -14.82166860196186, "lon": -87.68385037790868, "alt_km": 413.8380721201265, "timestamp": "2025-12-20T11:30:27.103583+00:00", "meta": {"OBJECT_NAME": "STARLINK-35744", "OBJECT_ID": "2025-268AA", "EPOCH": "2025-12-19T14:32:57.535872", "MEAN_MOTION": 15.50868619, "ECCENTRICITY": 0.0002007, "INCLINATION": 42.9976, "RA_OF_ASC_NODE": 80.9302, "ARG_OF_PERICENTER": 149.3188, "MEAN_ANOMALY": 210.779, "EPHEMERIS_TYPE": 0, "CLASSIFICATION_TYPE": "U", "NORAD_CAT_ID": 66581, "ELEMENT_SET_NO": 999, "REV_AT_EPOCH": 569, "BSTAR": 0.002953, "MEAN_MOTION_DOT": 0.00178751, "MEAN_MOTION_DDOT": 0}, "tle": {"line1": "1 66581U 25268AA  25353.60622148  .00178751  00000+0  29530-2 0  9995", "line2": "2 66581  42.9976  80.9302 0002007 149.3188 210.7790 15.50868619  5695"}}, "geometry": {"type": "Point", "coordinates": [-87.68385037790868, -14.82166860196186]}}, {"type": "Feature", "properties": {"norad_id": 66582, "name": "STARLINK-35746", "group": "last-30-days", "lat": -16.030135593420287, "lon": -86.23061319119975, "alt_km": 413.3332825257894, "timestamp": "2025-12-20T11:30:27.103593+00:00", "meta": {"OBJECT_NAME": "STARLINK-35746", "OBJECT_ID": "2025-268AB", "EPOCH": "2025-12-19T14:32:27.681216", "MEAN_MOTION": 15.50863129, "ECCENTRICITY": 0.0003514, "INCLINATION": 42.9991, "RA_OF_ASC_NODE": 80.9247, "ARG_OF_PERICENTER": 153.85, "MEAN_ANOMALY": 206.2539, "EPHEMERIS_TYPE": 0, "CLASSIFICATION_TYPE": "U", "NORAD_CAT_ID": 66582, "ELEMENT_SET_NO": 999, "REV_AT_EPOCH": 569, "BSTAR": 0.0024947, "MEAN_MOTION_DOT": 0.00150392, "MEAN_MOTION_DDOT": 0}, "tle": {"line1": "1 66582U 25268AB  25353.60587594  .00150392  00000+0  24947-2 0  9999", "line2": "2 66582  42.9991  80.9247 0003514 153.8500 206.2539 15.50863129  5695"}}, "geometry": {"type": "Point", "coordinates": [-86.23061319119975, -16.030135593420287]}}]}